{"type": "FeatureCollection", "features": [ {"type": "Feature", "properties": {"norad_id": 65304, "name": "DRAGON CRS-33", "group": "stations", "lat": 23.32266139849582, "lon": -43.23075425705656, "alt_km": 415.00793689604143, "timestamp": "2025-12-09T20:37:08.072951+00:00", "meta": {"OBJECT_NAME": "DRAGON CRS-33", "OBJECT_ID": "2025-186A", "EPOCH": "2025-12-09T12:14:10.839552", "MEAN_MOTION": 15.49447168, "ECCENTRICITY": 0.00034, "INCLINATION": 51.631, "RA_OF_ASC_NODE": 158.4724, "ARG_OF_PERICENTER": 223.8185, "MEAN_ANOMALY": 136.2534, "EPHEMERIS_TYPE": 0, "CLASSIFICATION_TYPE": "U", "NORAD_CAT_ID": 65304, "ELEMENT_SET_NO": 999, "REV_AT_EPOCH": 11, "BSTAR": 0.00026025969, "MEAN_MOTION_DOT": 0.00014141, "MEAN_MOTION_DDOT": 0}, "tle": {"line1": "1 65304U 25186A   25343.50984768  .00014141  00000+0  26026-3 0  9993", "line2": "2 65304  51.6310 158.4724 0003400 223.8185 136.2534 15.49447168   118"}}, "geometry": {"type": "Point", "coordinates": [-43.23075425705656, 23.32266139849582]}}, {"type": "Feature", "properties": {"norad_id": 65586, "name": "PROGRESS-MS 32", "group": "stations", "lat": 23.32266092205191, "lon": -43.23075378134289, "alt_km": 415.0079369474779, "timestamp": "2025-12-09T20:37:08.072961+00:00", "meta": {"OBJECT_NAME": "PROGRESS-MS 32", "OBJECT_ID": "2025-204A", "EPOCH": "2025-12-09T12:14:10.839552", "MEAN_MOTION": 15.49447168, "ECCENTRICITY": 0.00034, "INCLINATION": 51.631, "RA_OF_ASC_NODE": 158.4724, "ARG_OF_PERICENTER": 223.8185, "MEAN_ANOMALY": 136.2534, "EPHEMERIS_TYPE": 0, "CLASSIFICATION_TYPE": "U", "NORAD_CAT_ID": 65586, "ELEMENT_SET_NO": 999, "REV_AT_EPOCH": 27, "BSTAR": 0.00026025969, "MEAN_MOTION_DOT": 0.00014141, "MEAN_MOTION_DDOT": 0}, "tle": {"line1": "1 65586U 25204A   25343.50984768  .00014141  00000+0  26026-3 0  9996", "line2": "2 65586  51.6310 158.4724 0003400 223.8185 136.2534 15.49447168   277"}}, "geometry": {"type": "Point", "coordinates": [-43.23075378134289, 23.32266092205191]}}, {"type": "Feature", "properties": {"norad_id": 65616, "name": "CYGNUS NG-23", "group": "stations", "lat": 23.3226604456074, "lon": -43.23075330562862, "alt_km": 415.0079369989171, "timestamp": "2025-12-09T20:37:08.072971+00:00", "meta": {"OBJECT_NAME": "CYGNUS NG-23", "OBJECT_ID": "2025-208A", "EPOCH": "2025-12-09T12:14:10.839552", "MEAN_MOTION": 15.49447168, "ECCENTRICITY": 0.00034, "INCLINATION": 51.631, "RA_OF_ASC_NODE": 158.4724, "ARG_OF_PERICENTER": 223.8185, "MEAN_ANOMALY": 136.2534, "EPHEMERIS_TYPE": 0, "CLASSIFICATION_TYPE": "U", "NORAD_CAT_ID": 65616, "ELEMENT_SET_NO": 999, "REV_AT_EPOCH": 22, "BSTAR": 0.00026025969, "MEAN_MOTION_DOT": 0.00014141, "MEAN_MOTION_DDOT": 0}, "tle": {"line1": "1 65616U 25208A   25343.50984768  .00014141  00000+0  26026-3 0  9994", "line2": "2 65616  51.6310 158.4724 0003400 223.8185 136.2534 15.49447168   226"}}, "geometry": {"type": "Point", "coordinates": [-43.23075330562862, 23.3226604456074]}}, {"type": "Feature", "properties": {"norad_id": 65729, "name": "DRAGONFLY", "group": "stations", "lat": -50.83984900814995, "lon": 47.167611024605996, "alt_km": 357.2767179864222, "timestamp": "2025-12-09T20:37:08.072982+00:00", "meta": {"OBJECT_NAME": "DRAGONFLY", "OBJECT_ID": "1998-067XH", "EPOCH": "2025-12-09T11:52:26.095872", "MEAN_MOTION": 15.70499103, "ECCENTRICITY": 0.00065374, "INCLINATION": 51.6245, "RA_OF_ASC_NODE": 152.3636, "ARG_OF_PERICENTER": 255.9884, "MEAN_ANOMALY": 104.0387, "EPHEMERIS_TYPE": 0, "CLASSIFICATION_TYPE": "U", "NORAD_CAT_ID": 65729, "ELEMENT_SET_NO": 999, "REV_AT_EPOCH": 1265, "BSTAR": 0.0014915016, "MEAN_MOTION_DOT": 0.00190953, "MEAN_MOTION_DDOT": 0}, "tle": {"line1": "1 65729U 98067XH  25343.49474648  .00190953  00000+0  14915-2 0  9990", "line2": "2 65729  51.6245 152.3636 0006537 255.9884 104.0387 15.70499103 12658"}}, "geometry": {"type": "Point", "coordinates": [47.167611024605996, -50.83984900814995]}}, {"type": "Feature", "properties": {"norad_id": 65731, "name": "1998-067XK", "group": "stations", "lat": -10.075171868165166, "lon": 143.74524393315693, "alt_km": 377.0562450174448, "timestamp": "2025-12-09T20:37:08.072993+00:00", "meta": {"OBJECT_NAME": "1998-067XK", "OBJECT_ID": "1998-067XK", "EPOCH": "2025-12-09T11:28:42.048480", "MEAN_MOTION": 15.6489001, "ECCENTRICITY": 0.00052455, "INCLINATION": 51.6282, "RA_OF_ASC_NODE": 153.7695, "ARG_OF_PERICENTER": 225.0581, "MEAN_ANOMALY": 134.9989, "EPHEMERIS_TYPE": 0, "CLASSIFICATION_TYPE": "U", "NORAD_CAT_ID": 65731, "ELEMENT_SET_NO": 999, "REV_AT_EPOCH": 1263, "BSTAR": 0.0011288356, "MEAN_MOTION_DOT": 0.00113689, "MEAN_MOTION_DDOT": 0}, "tle": {"line1": "1 65731U 98067XK  25343.47826445  .00113689  00000+0  11288-2 0  9998", "line2": "2 65731  51.6282 153.7695 0005245 225.0581 134.9989 15.64890010 12632"}}, "geometry": {"type": "Point", "coordinates": [143.74524393315693, -10.075171868165166]}}, {"type": "Feature", "properties": {"norad_id": 65732, "name": "RSP-03", "group": "stations", "lat": -47.07943921541418, "lon": 92.75230527780805, "alt_km": 368.1354800865356, "timestamp": "2025-12-09T20:37:08.073006+00:00", "meta": {"OBJECT_NAME": "RSP-03", "OBJECT_ID": "1998-067XL", "EPOCH": "2025-12-09T11:43:58.717920", "MEAN_MOTION": 15.67520874, "ECCENTRICITY": 0.00060112, "INCLINATION": 51.626, "RA_OF_ASC_NODE": 153.082, "ARG_OF_PERICENTER": 229.3299, "MEAN_ANOMALY": 130.7176, "EPHEMERIS_TYPE": 0, "CLASSIFICATION_TYPE": "U", "NORAD_CAT_ID": 65732, "ELEMENT_SET_NO": 999, "REV_AT_EPOCH": 1265, "BSTAR": 0.001321043, "MEAN_MOTION_DOT": 0.00148707, "MEAN_MOTION_DDOT": 0}, "tle": {"line1": "1 65732U 98067XL  25343.48887405  .00148707  00000+0  13210-2 0  9999", "line2": "2 65732  51.6260 153.0820 0006011 229.3299 130.7176 15.67520874 12652"}}, "geometry": {"type": "Point", "coordinates": [92.75230527780805, -47.07943921541418]}}, {"type": "Feature", "properties": {"norad_id": 65733, "name": "GHS-01", "group": "stations", "lat": 25.282484447665276, "lon": -51.98357483417173, "alt_km": 348.2829461884194, "timestamp": "2025-12-09T20:37:08.073017+00:00", "meta": {"OBJECT_NAME": "GHS-01", "OBJECT_ID": "1998-067XM", "EPOCH": "2025-12-09T00:10:31.774944", "MEAN_MOTION": 15.72845555, "ECCENTRICITY": 0.00068773, "INCLINATION": 51.6283, "RA_OF_ASC_NODE": 154.3653, "ARG_OF_PERICENTER": 253.5848, "MEAN_ANOMALY": 106.4394, "EPHEMERIS_TYPE": 0, "CLASSIFICATION_TYPE": "U", "NORAD_CAT_ID": 65733, "ELEMENT_SET_NO": 999, "REV_AT_EPOCH": 1259, "BSTAR": 0.0015000957, "MEAN_MOTION_DOT": 0.0021266, "MEAN_MOTION_DDOT": 0}, "tle": {"line1": "1 65733U 98067XM  25343.00731221  .00212660  00000+0  15001-2 0  9992", "line2": "2 65733  51.6283 154.3653 0006877 253.5848 106.4394 15.72845555 12592"}}, "geometry": {"type": "Point", "coordinates": [-51.98357483417173, 25.282484447665276]}}, {"type": "Feature", "properties": {"norad_id": 65941, "name": "YOTSUBA-KULOVER", "group": "stations", "lat": 5.962053327262323, "lon": -30.297062888737347, "alt_km": 389.9946350933351, "timestamp": "2025-12-09T20:37:08.073027+00:00", "meta": {"OBJECT_NAME": "YOTSUBA-KULOVER", "OBJECT_ID": "1998-067XN", "EPOCH": "2025-12-09T12:11:24.743328", "MEAN_MOTION": 15.58849812, "ECCENTRICITY": 0.00016122, "INCLINATION": 51.6274, "RA_OF_ASC_NODE": 156.2142, "ARG_OF_PERICENTER": 216.6617, "MEAN_ANOMALY": 143.4266, "EPHEMERIS_TYPE": 0, "CLASSIFICATION_TYPE": "U", "NORAD_CAT_ID": 65941, "ELEMENT_SET_NO": 999, "REV_AT_EPOCH": 935, "BSTAR": 0.0010220852, "MEAN_MOTION_DOT": 0.0008095, "MEAN_MOTION_DDOT": 0}, "tle": {"line1": "1 65941U 98067XN  25343.50792527  .00080950  00000+0  10221-2 0  9998", "line2": "2 65941  51.6274 156.2142 0001612 216.6617 143.4266 15.58849812  9356"}}, "geometry": {"type": "Point", "coordinates": [-30.297062888737347, 5.962053327262323]}}, {"type": "Feature", "properties": {"norad_id": 65942, "name": "BOTAN", "group": "stations", "lat": 48.61711092344526, "lon": -90.22966503219853, "alt_km": 375.7729974478798, "timestamp": "2025-12-09T20:37:08.073038+00:00", "meta": {"OBJECT_NAME": "BOTAN", "OBJECT_ID": "1998-067XP", "EPOCH": "2025-12-09T12:29:10.787136", "MEAN_MOTION": 15.61959609, "ECCENTRICITY": 0.00035005, "INCLINATION": 51.628, "RA_OF_ASC_NODE": 155.5477, "ARG_OF_PERICENTER": 212.819, "MEAN_ANOMALY": 147.2587, "EPHEMERIS_TYPE": 0, "CLASSIFICATION_TYPE": "U", "NORAD_CAT_ID": 65942, "ELEMENT_SET_NO": 999, "REV_AT_EPOCH": 936, "BSTAR": 0.00138053, "MEAN_MOTION_DOT": 0.00124109, "MEAN_MOTION_DDOT": 0}, "tle": {"line1": "1 65942U 98067XP  25343.52026374  .00124109  00000+0  13805-2 0  9997", "line2": "2 65942  51.6280 155.5477 0003500 212.8190 147.2587 15.61959609  9368"}}, "geometry": {"type": "Point", "coordinates": [-90.22966503219853, 48.61711092344526]}}, {"type": "Feature", "properties": {"norad_id": 65943, "name": "E-KAGAKU-1", "group": "stations", "lat": 6.231146940122207, "lon": -30.508726170765886, "alt_km": 389.0501319149125, "timestamp": "2025-12-09T20:37:08.073048+00:00", "meta": {"OBJECT_NAME": "E-KAGAKU-1", "OBJECT_ID": "1998-067XQ", "EPOCH": "2025-12-08T17:43:35.861664", "MEAN_MOTION": 15.58651727, "ECCENTRICITY": 0.00029774, "INCLINATION": 51.6297, "RA_OF_ASC_NODE": 160.0822, "ARG_OF_PERICENTER": 178.8942, "MEAN_ANOMALY": 181.2057, "EPHEMERIS_TYPE": 0, "CLASSIFICATION_TYPE": "U", "NORAD_CAT_ID": 65943, "ELEMENT_SET_NO": 999, "REV_AT_EPOCH": 923, "BSTAR": 0.00085624806, "MEAN_MOTION_DOT": 0.00067115, "MEAN_MOTION_DDOT": 0}, "tle": {"line1": "1 65943U 98067XQ  25342.73860951  .00067115  00000+0  85625-3 0  9990", "line2": "2 65943  51.6297 160.0822 0002977 178.8942 181.2057 15.58651727  9237"}}, "geometry": {"type": "Point", "coordinates": [-30.508726170765886, 6.231146940122207]}}]}